GLOBALSTAR M045 [-]     
1 25676U 99019A   23331.75394602 -.00000072  00000+0  19125-3 0  9992
2 25676  51.9943 122.5180 0001576 128.9116 336.3824 12.27020431123732
GLOBALSTAR M019 [-]     
1 25677U 99019B   23332.01138514  .00000038  00000+0  13385-2 0  9993
2 25677  51.9857 212.2564 0000171  39.2131  67.9697 12.13846269116457
GLOBALSTAR M044 [-]     
1 25678U 99019C   23331.57154007 -.00000100  00000+0 -23162-3 0  9996
2 25678  51.9960  93.8255 0006467  33.4299  47.5630 11.90227188103733
GLOBALSTAR M042 [-]     
1 25679U 99019D   23331.85096730 -.00000032  00000+0  56256-3 0  9999
2 25679  52.0002 212.5142 0002327 192.3371 247.2716 12.22052218115895
GLOBALSTAR M025 [-]     
1 25770U 99031A   23331.47125428 -.00000050  00000+0  54886-3 0  9997
2 25770  51.9851  34.4145 0000920 254.1888 202.8945 11.22547737417955
GLOBALSTAR M049 [-]     
1 25771U 99031B   23331.47275702 -.00000068  00000+0 -11001-3 0  9991
2 25771  51.9905  40.6426 0003430 140.6277 219.4769 11.12100054 54262
GLOBALSTAR M047 [-]     
1 25772U 99031C   23331.77017537 -.00000097  00000+0 -76253-3 0  9997
2 25772  51.9828  91.1455 0016011  12.0911 348.0277 11.31917073406853
GLOBALSTAR M052 [-]     
1 25773U 99031D   23331.78362369 -.00000029  00000+0  12267-2 0  9993
2 25773  51.9826 156.5909 0001668 344.5739 105.9237 11.15047618415212
